From:	Horizons Ephemeris System <horizons@ssd.jpl.nasa.gov>
Sent:	Friday, December 4, 2020 11:14 AM
Subject:	[Horizons] MAJOR BODY #C(usr={90.,-35.,.600^G}@301)_T(301) (1/1)

 Automated mail xmit by MAIL_REQUEST, PID= 25980 Fri Dec  4 09:14:14 2020
++++++++++++++++++++++++++++++++ (part 1 of 1)  +++++++++++++++++++++++++++++++
*******************************************************************************
 Revised: July 31, 2013             Moon / (Earth)                          301
 
 GEOPHYSICAL DATA (updated 2018-Aug-15):
  Vol. mean radius, km  = 1737.53+-0.03    Mass, x10^22 kg       =    7.349
  Radius (gravity), km  = 1738.0           Surface emissivity    =    0.92
  Radius (IAU), km      = 1737.4           GM, km^3/s^2          = 4902.800066
  Density, g/cm^3       =    3.3437        GM 1-sigma, km^3/s^2  =  +-0.0001  
  V(1,0)                =   +0.21          Surface accel., m/s^2 =    1.62
  Earth/Moon mass ratio = 81.3005690769    Farside crust. thick. = ~80 - 90 km
  Mean crustal density  = 2.97+-.07 g/cm^3 Nearside crust. thick.= 58+-8 km 
  Heat flow, Apollo 15  = 3.1+-.6 mW/m^2   Mean angular diameter = 31'05.2"
  Heat flow, Apollo 17  = 2.2+-.5 mW/m^2   Sid. rot. rate, rad/s = 0.0000026617
  Geometric Albedo      = 0.12             Mean solar day        = 29.5306 d
  Obliquity to orbit    = 6.67 deg         Orbit period          = 27.321582 d
  Semi-major axis, a    = 384400 km        Eccentricity          = 0.05490
  Mean motion, rad/s    = 2.6616995x10^-6  Inclination           = 5.145 deg
  Apsidal period        = 3231.50 d        Nodal period          = 6798.38 d
                                 Perihelion  Aphelion    Mean
  Solar Constant (W/m^2)         1414+-7     1323+-7     1368+-7
  Maximum Planetary IR (W/m^2)   1314        1226        1268
  Minimum Planetary IR (W/m^2)      5.2         5.2         5.2
********************************************************************************
 
 
*******************************************************************************
Ephemeris / MAIL_REQUEST Fri Dec  4 09:14:13 2020 Pasadena, USA  / Horizons
*******************************************************************************
Target body name: Moon (301)                      {source: DE431mx}
Center body name: Moon (301)                      {source: DE431mx}
Center-site name: (user defined site below)
*******************************************************************************
Start time      : A.D. 2020-Jan-01 00:00:00.0000 TDB
Stop  time      : A.D. 2039-Jan-01 00:00:00.0000 TDB
Step-size       : 10000 steps
*******************************************************************************
Center geodetic : 90.0000000,-35.000000,0.6000000 {E-lon(deg),Lat(deg),Alt(km)}
Center cylindric: 90.0000000,1423.68625,-996.8758 {E-lon(deg),Dxy(km),Dz(km)}
Center pole/equ : IAU_MOON                        {East-longitude positive}
Center radii    : 1737.4 x 1737.4 x 1737.4 km     {Equator, meridian, pole}    
Output units    : KM-S
Output type     : GEOMETRIC cartesian states
Output format   : 3 (position, velocity, LT, range, range-rate)
Reference frame : Ecliptic of J2000.0
*******************************************************************************
JDTDB
   X     Y     Z
   VX    VY    VZ
   LT    RG    RR
*******************************************************************************
$$SOE
2461730.988000001 = A.D. 2027-Nov-21 11:42:43.2001 TDB 
  -6.349101101600500E+02 -1.247540131483738E+03  1.030134346750021E+03
   3.362380289872099E-03 -1.749630307390285E-03 -4.652284785778931E-05
   5.797343974543884E-03  1.738000000000000E+03 -1.756682000989171E-19
2461731.682000001 = A.D. 2027-Nov-22 04:22:04.8001 TDB 
  -4.258050508616737E+02 -1.335953048880321E+03  1.026919427145120E+03
   3.597441609059956E-03 -1.193093605278402E-03 -6.048014149102562E-05
   5.797343974543883E-03  1.738000000000000E+03  1.956304955647032E-19
2461732.376000001 = A.D. 2027-Nov-22 21:01:26.4001 TDB 
  -2.053224901896344E+02 -1.390013290947184E+03  1.022912374552438E+03
   3.741067584164591E-03 -6.062410510189175E-04 -7.288777410510176E-05
   5.797343974543884E-03  1.738000000000000E+03  7.984918186314416E-20
2461733.070000001 = A.D. 2027-Nov-23 13:40:48.0001 TDB 
   2.093365607425824E+01 -1.408347362971524E+03  1.018215835299432E+03
   3.789608994446639E-03 -3.989065270272838E-06 -8.342863856049764E-05
   5.797343974543883E-03  1.738000000000000E+03  3.193967274525767E-20
2461733.764000001 = A.D. 2027-Nov-24 06:20:09.6001 TDB 
   2.472128014868333E+02 -1.390489829635042E+03  1.012950079945968E+03
   3.741833266137522E-03  5.983550570504750E-04 -9.183321559544719E-05
   5.797343974543881E-03  1.738000000000000E+03  7.186426367682976E-20
2461734.458000001 = A.D. 2027-Nov-24 22:59:31.2001 TDB 
   4.677638392515361E+02 -1.336895113958370E+03  1.007249941654454E+03
   3.598955625908427E-03  1.185482168095858E-03 -9.788631260356775E-05
   5.797343974543882E-03  1.738000000000000E+03  2.395475455894325E-20
2461735.152000001 = A.D. 2027-Nov-25 15:38:52.8001 TDB 
   6.769812959041108E+02 -1.248925921154146E+03  1.001261388681926E+03
   3.364608063673167E-03  1.742470259393202E-03 -1.014325075415309E-04
   5.797343974543883E-03  1.738000000000000E+03 -4.232006638746641E-19
2461735.846000001 = A.D. 2027-Nov-26 08:18:14.4001 TDB 
   8.695477758672629E+02 -1.128818585952600E+03  9.951378123115759E+02
   3.044746920826812E-03  2.255163548127310E-03 -1.023801772320113E-04
   5.797343974543881E-03  1.738000000000000E+03 -3.992459093157209E-20
2461736.540000001 = A.D. 2027-Nov-27 00:57:36.0001 TDB 
   1.040569080249561E+03 -9.796262275069436E+02  9.890361184552855E+02
   2.647501475154099E-03  2.710532044663644E-03 -1.007040002396351E-04
   5.797343974543883E-03  1.738000000000000E+03 -5.908839457872668E-19
2461737.234000001 = A.D. 2027-Nov-27 17:36:57.6001 TDB 
   1.185698570475827E+03 -8.051411584058419E+02  9.831127173485652E+02
   2.182967383824039E-03  3.097002494272589E-03 -9.644583870995404E-05
   5.797343974543884E-03  1.738000000000000E+03 -1.596983637262883E-19
2461737.928000001 = A.D. 2027-Nov-28 10:16:19.2001 TDB 
   1.301247621123367E+03 -6.097985195040450E+02  9.775195108699631E+02
   1.662950234344233E-03  3.404752318934250E-03 -8.971392606257293E-05
   5.797343974543883E-03  1.738000000000000E+03 -1.517134455399739E-19
2461738.622000001 = A.D. 2027-Nov-29 02:55:40.8001 TDB 
   1.384279359459249E+03 -3.985635872039521E+02  9.723999804248294E+02
   1.100665706824794E-03  3.625959124775430E-03 -8.068032227079454E-05
   5.797343974543883E-03  1.738000000000000E+03 -3.193967274525767E-20
2461739.316000001 = A.D. 2027-Nov-29 19:35:02.4001 TDB 
   1.432683312656797E+03 -1.768056128307546E+02  9.678854792310331E+02
   5.104039402524537E-04  3.754999462768213E-03 -6.957664740830840E-05
   5.797343974543883E-03  1.738000000000000E+03  1.117888546084018E-19
2461740.010000001 = A.D. 2027-Nov-30 12:14:24.0001 TDB 
   1.445229066946462E+03  4.983860537571854E+01  9.640918304120526E+02
  -9.283340454509268E-05  3.788591807188874E-03 -5.668816564148322E-05
   5.797343974543882E-03  1.738000000000000E+03 -1.676832819126027E-19
2461740.704000001 = A.D. 2027-Dec-01 04:53:45.6001 TDB 
   1.421597573957128E+03  2.756079566242653E+02  9.611163259276187E+02
  -6.937142023259850E-04  3.725880117383662E-03 -4.234636082534830E-05
   5.797343974543882E-03  1.738000000000000E+03  1.996229546578604E-19
2461741.398000001 = A.D. 2027-Dec-01 21:33:07.2001 TDB 
   1.362389305207051E+03  4.947634237249209E+02  9.590352108246309E+02
  -1.276965394588453E-03  3.568455841188376E-03 -2.692021356394750E-05
   5.797343974543884E-03  1.738000000000000E+03 -8.783410004945857E-20
2461742.092000001 = A.D. 2027-Dec-02 14:12:28.8001 TDB 
   1.269109042100864E+03  7.017339443229808E+02  9.579017228519519E+02
  -1.827761122536192E-03  3.320317768062709E-03 -1.080644927372622E-05
   5.797343974543883E-03  1.738000000000000E+03 -3.982477945424315E-19
2461742.786000001 = A.D. 2027-Dec-03 06:51:50.4001 TDB 
   1.144127681336983E+03  8.912580220825937E+02  9.577447399343325E+02
  -2.332099610532859E-03  2.987770710003548E-03  5.580930271813830E-06
   5.797343974543882E-03  1.738000000000000E+03 -4.017411962489442E-19
2461743.480000001 = A.D. 2027-Dec-03 23:31:12.0001 TDB 
   9.906220195344258E+02  1.058517488019313E+03  9.585680685119966E+02
  -2.777159217110002E-03  2.579265540489638E-03  2.182149818609968E-05
   5.797343974543883E-03  1.738000000000000E+03 -6.527670617312036E-19
2461744.174000001 = A.D. 2027-Dec-04 16:10:33.6001 TDB 
   8.124940413145965E+02  1.199260009152583E+03  9.603503856799462E+02
  -3.151624583255732E-03  2.105184616840747E-03  3.749930445445977E-05
   5.797343974543884E-03  1.738000000000000E+03  3.074193501731050E-19
2461744.868000001 = A.D. 2027-Dec-05 08:49:55.2001 TDB 
   6.142717576890097E+02  1.309907225525536E+03  9.630458287234549E+02
  -3.445974554028487E-03  1.577578010553521E-03  5.221351871392789E-05
   5.797343974543884E-03  1.738000000000000E+03  2.116003319373321E-19
2461745.562000001 = A.D. 2027-Dec-06 01:29:16.8001 TDB 
   4.009941129189971E+02  1.387645760581842E+03  9.665852081133595E+02
  -3.652724512855870E-03  1.009857235986772E-03  6.558854090465141E-05
   5.797343974543882E-03  1.738000000000000E+03 -5.589442730420092E-20
2461746.256000001 = A.D. 2027-Dec-06 18:08:38.4001 TDB 
   1.780828854883058E+02  1.430498784931458E+03  9.708778049815445E+02
  -3.766616925246124E-03  4.164542648603573E-04  7.728335155017979E-05
   5.797343974543883E-03  1.738000000000000E+03  7.984918186314417E-20
2461746.950000001 = A.D. 2027-Dec-07 10:48:00.0001 TDB 
  -4.879515799033700E+01  1.437376308417961E+03  9.758137017666090E+02
  -3.784755210258691E-03 -1.875454875386500E-04  8.699991806400405E-05
   5.797343974543883E-03  1.738000000000000E+03  7.984918186314419E-21
